CTC1_L_00200001-01
1 25386U 23382EL  26037.47803241  .00000000  00000+0  00000-0 0  9998
2 25386  80.0000   0.0000 0000000   0.0000   0.0000 13.56072426    11
CTC1_L_00200001-02
1 25387U 24433WV  26037.47803241  .00000000  00000+0  00000-0 0  9997
2 25387  80.0000   0.0000 0000000   0.0000  90.0000 13.56072426    11
CTC1_L_00200001-03
1 25388U 26919OJ  26037.47803241  .00000000  00000+0  00000-0 0  9999
2 25388  80.0000   0.0000 0000000   0.0000 180.0000 13.56072426    12
CTC1_L_00200001-04
1 25389U 25830UT  26037.47803241  .00000000  00000+0  00000-0 0  9991
2 25389  80.0000   0.0000 0000000   0.0000 270.0000 13.56072426    13
CTC1_L_00200002-01
1 25390U 26607JT  26037.47803241  .00000000  00000+0  00000-0 0  9996
2 25390  80.0000  12.0000 0000000   0.0000  12.0000 13.56072426    12
CTC1_L_00200002-02
1 25391U 25350QB  26037.47803241  .00000000  00000+0  00000-0 0  9991
2 25391  80.0000  12.0000 0000000   0.0000 102.0000 13.56072426    13
CTC1_L_00200002-03
1 25392U 24757GD  26037.47803241  .00000000  00000+0  00000-0 0  9992
2 25392  80.0000  12.0000 0000000   0.0000 192.0000 13.56072426    13
CTC1_L_00200002-04
1 25393U 23142ZR  26037.47803241  .00000000  00000+0  00000-0 0  9990
2 25393  80.0000  12.0000 0000000   0.0000 282.0000 13.56072426    14
CTC1_L_00200003-01
1 25394U 24396SS  26037.47803241  .00000000  00000+0  00000-0 0  9993
2 25394  80.0000  24.0000 0000000   0.0000  24.0000 13.56072426    12
CTC1_L_00200003-02
1 25395U 25331CK  26037.47803241  .00000000  00000+0  00000-0 0  9994
2 25395  80.0000  24.0000 0000000   0.0000 114.0000 13.56072426    13
CTC1_L_00200003-03
1 25396U 25350RU  26037.47803241  .00000000  00000+0  00000-0 0  9996
2 25396  80.0000  24.0000 0000000   0.0000 204.0000 13.56072426    14
CTC1_L_00200003-04
1 25397U 26804VC  26037.47803241  .00000000  00000+0  00000-0 0  9992
2 25397  80.0000  24.0000 0000000   0.0000 294.0000 13.56072426    14
CTC1_L_00200004-01
1 25398U 23049JC  26037.47803241  .00000000  00000+0  00000-0 0  9991
2 25398  80.0000  36.0000 0000000   0.0000  36.0000 13.56072426    12
CTC1_L_00200004-02
1 25399U 24565TB  26037.47803241  .00000000  00000+0  00000-0 0  9996
2 25399  80.0000  36.0000 0000000   0.0000 126.0000 13.56072426    13
CTC1_L_00200004-03
1 25400U 24123GI  26037.47803241  .00000000  00000+0  00000-0 0  9999
2 25400  80.0000  36.0000 0000000   0.0000 216.0000 13.56072426    16
CTC1_L_00200004-04
1 25401U 24318TD  26037.47803241  .00000000  00000+0  00000-0 0  9996
2 25401  80.0000  36.0000 0000000   0.0000 306.0000 13.56072426    17
CTC1_L_00200005-01
1 25402U 25978NX  26037.47803241  .00000000  00000+0  00000-0 0  9990
2 25402  80.0000  48.0000 0000000   0.0000  48.0000 13.56072426    14
CTC1_L_00200005-02
1 25403U 23879NE  26037.47803241  .00000000  00000+0  00000-0 0  9999
2 25403  80.0000  48.0000 0000000   0.0000 138.0000 13.56072426    15
CTC1_L_00200005-03
1 25404U 26319AB  26037.47803241  .00000000  00000+0  00000-0 0  9992
2 25404  80.0000  48.0000 0000000   0.0000 228.0000 13.56072426    16
CTC1_L_00200005-04
1 25405U 25944XP  26037.47803241  .00000000  00000+0  00000-0 0  9996
2 25405  80.0000  48.0000 0000000   0.0000 318.0000 13.56072426    17
CTC1_L_00200006-01
1 25406U 23432LR  26037.47803241  .00000000  00000+0  00000-0 0  9997
2 25406  80.0000  60.0000 0000000   0.0000  60.0000 13.56072426    16
CTC1_L_00200006-02
1 25407U 25416Z   26037.47803241  .00000000  00000+0  00000-0 0  9992
2 25407  80.0000  60.0000 0000000   0.0000 150.0000 13.56072426    17
CTC1_L_00200006-03
1 25408U 24208IE  26037.47803241  .00000000  00000+0  00000-0 0  9991
2 25408  80.0000  60.0000 0000000   0.0000 240.0000 13.56072426    18
CTC1_L_00200006-04
1 25409U 23494TS  26037.47803241  .00000000  00000+0  00000-0 0  9998
2 25409  80.0000  60.0000 0000000   0.0000 330.0000 13.56072426    19
CTC1_L_00200007-01
1 25410U 26719ZQ  26037.47803241  .00000000  00000+0  00000-0 0  9993
2 25410  80.0000  72.0000 0000000   0.0000  72.0000 13.56072426    17
CTC1_L_00200007-02
1 25411U 25168RF  26037.47803241  .00000000  00000+0  00000-0 0  9991
2 25411  80.0000  72.0000 0000000   0.0000 162.0000 13.56072426    18
CTC1_L_00200007-03
1 25412U 26198TY  26037.47803241  .00000000  00000+0  00000-0 0  9996
2 25412  80.0000  72.0000 0000000   0.0000 252.0000 13.56072426    19
CTC1_L_00200007-04
1 25413U 24576PB  26037.47803241  .00000000  00000+0  00000-0 0  9995
2 25413  80.0000  72.0000 0000000   0.0000 342.0000 13.56072426    10
CTC1_L_00200008-01
1 25414U 22844PL  26037.47803241  .00000000  00000+0  00000-0 0  9992
2 25414  80.0000  84.0000 0000000   0.0000  84.0000 13.56072426    17
CTC1_L_00200008-02
1 25415U 26907CX  26037.47803241  .00000000  00000+0  00000-0 0  9997
2 25415  80.0000  84.0000 0000000   0.0000 174.0000 13.56072426    18
CTC1_L_00200008-03
1 25416U 26373SL  26037.47803241  .00000000  00000+0  00000-0 0  9995
2 25416  80.0000  84.0000 0000000   0.0000 264.0000 13.56072426    19
CTC1_L_00200008-04
1 25417U 25347KB  26037.47803241  .00000000  00000+0  00000-0 0  9996
2 25417  80.0000  84.0000 0000000   0.0000 354.0000 13.56072426    10
CTC1_L_00200009-01
1 25418U 22607ZT  26037.47803241  .00000000  00000+0  00000-0 0  9993
2 25418  80.0000  96.0000 0000000   0.0000  96.0000 13.56072426    17
CTC1_L_00200009-02
1 25419U 25283UN  26037.47803241  .00000000  00000+0  00000-0 0  9997
2 25419  80.0000  96.0000 0000000   0.0000 186.0000 13.56072426    18
CTC1_L_00200009-03
1 25420U 23442HP  26037.47803241  .00000000  00000+0  00000-0 0  9994
2 25420  80.0000  96.0000 0000000   0.0000 276.0000 13.56072426    10
CTC1_L_00200009-04
1 25421U 25420TL  26037.47803241  .00000000  00000+0  00000-0 0  9993
2 25421  80.0000  96.0000 0000000   0.0000   6.0000 13.56072426    12
CTC1_L_00200010-01
1 25422U 26600JO  26037.47803241  .00000000  00000+0  00000-0 0  9995
2 25422  80.0000 108.0000 0000000   0.0000 108.0000 13.56072426    10
CTC1_L_00200010-02
1 25423U 22019RN  26037.47803241  .00000000  00000+0  00000-0 0  9996
2 25423  80.0000 108.0000 0000000   0.0000 198.0000 13.56072426    10
CTC1_L_00200010-03
1 25424U 22751B   26037.47803241  .00000000  00000+0  00000-0 0  9990
2 25424  80.0000 108.0000 0000000   0.0000 288.0000 13.56072426    11
CTC1_L_00200010-04
1 25425U 26445OA  26037.47803241  .00000000  00000+0  00000-0 0  9995
2 25425  80.0000 108.0000 0000000   0.0000  18.0000 13.56072426    13
CTC1_L_00200011-01
1 25426U 22192OX  26037.47803241  .00000000  00000+0  00000-0 0  9991
2 25426  80.0000 120.0000 0000000   0.0000 120.0000 13.56072426    12
CTC1_L_00200011-02
1 25427U 23561TE  26037.47803241  .00000000  00000+0  00000-0 0  9993
2 25427  80.0000 120.0000 0000000   0.0000 210.0000 13.56072426    13
CTC1_L_00200011-03
1 25428U 25617HT  26037.47803241  .00000000  00000+0  00000-0 0  9998
2 25428  80.0000 120.0000 0000000   0.0000 300.0000 13.56072426    14
CTC1_L_00200011-04
1 25429U 23587QV  26037.47803241  .00000000  00000+0  00000-0 0  9993
2 25429  80.0000 120.0000 0000000   0.0000  30.0000 13.56072426    15
CTC1_L_00200012-01
1 25430U 26861DH  26037.47803241  .00000000  00000+0  00000-0 0  9993
2 25430  80.0000 132.0000 0000000   0.0000 132.0000 13.56072426    13
CTC1_L_00200012-02
1 25431U 24796IB  26037.47803241  .00000000  00000+0  00000-0 0  9999
2 25431  80.0000 132.0000 0000000   0.0000 222.0000 13.56072426    14
CTC1_L_00200012-03
1 25432U 23731HL  26037.47803241  .00000000  00000+0  00000-0 0  9998
2 25432  80.0000 132.0000 0000000   0.0000 312.0000 13.56072426    15
CTC1_L_00200012-04
1 25433U 24646GN  26037.47803241  .00000000  00000+0  00000-0 0  9995
2 25433  80.0000 132.0000 0000000   0.0000  42.0000 13.56072426    16
CTC1_L_00200013-01
1 25434U 24091OD  26037.47803241  .00000000  00000+0  00000-0 0  9990
2 25434  80.0000 144.0000 0000000   0.0000 144.0000 13.56072426    13
CTC1_L_00200013-02
1 25435U 22255QG  26037.47803241  .00000000  00000+0  00000-0 0  9991
2 25435  80.0000 144.0000 0000000   0.0000 234.0000 13.56072426    14
CTC1_L_00200013-03
1 25436U 26327BZ  26037.47803241  .00000000  00000+0  00000-0 0  9996
2 25436  80.0000 144.0000 0000000   0.0000 324.0000 13.56072426    15
CTC1_L_00200013-04
1 25437U 23969LN  26037.47803241  .00000000  00000+0  00000-0 0  9996
2 25437  80.0000 144.0000 0000000   0.0000  54.0000 13.56072426    16
CTC1_L_00200014-01
1 25438U 23438PR  26037.47803241  .00000000  00000+0  00000-0 0  9998
2 25438  80.0000 156.0000 0000000   0.0000 156.0000 13.56072426    13
CTC1_L_00200014-02
1 25439U 26101VW  26037.47803241  .00000000  00000+0  00000-0 0  9999
2 25439  80.0000 156.0000 0000000   0.0000 246.0000 13.56072426    14
CTC1_L_00200014-03
1 25440U 24338EN  26037.47803241  .00000000  00000+0  00000-0 0  9991
2 25440  80.0000 156.0000 0000000   0.0000 336.0000 13.56072426    16
CTC1_L_00200014-04
1 25441U 22967PU  26037.47803241  .00000000  00000+0  00000-0 0  9998
2 25441  80.0000 156.0000 0000000   0.0000  66.0000 13.56072426    17
CTC1_L_00200015-01
1 25442U 23893HA  26037.47803241  .00000000  00000+0  00000-0 0  9998
2 25442  80.0000 168.0000 0000000   0.0000 168.0000 13.56072426    14
CTC1_L_00200015-02
1 25443U 23591LU  26037.47803241  .00000000  00000+0  00000-0 0  9994
2 25443  80.0000 168.0000 0000000   0.0000 258.0000 13.56072426    15
CTC1_L_00200015-03
1 25444U 25069TF  26037.47803241  .00000000  00000+0  00000-0 0  9997
2 25444  80.0000 168.0000 0000000   0.0000 348.0000 13.56072426    16
CTC1_L_00200015-04
1 25445U 22934YI  26037.47803241  .00000000  00000+0  00000-0 0  9996
2 25445  80.0000 168.0000 0000000   0.0000  78.0000 13.56072426    17
CTC1_L_00200016-01
1 25446U 22590ZP  26037.47803241  .00000000  00000+0  00000-0 0  9995
2 25446  80.0000 180.0000 0000000   0.0000 180.0000 13.56072426    16
CTC1_L_00200016-02
1 25447U 23947XA  26037.47803241  .00000000  00000+0  00000-0 0  9993
2 25447  80.0000 180.0000 0000000   0.0000 270.0000 13.56072426    17
